sat04638
1 04638U 70025W   20046.82966942  .00003006  00000-0  55977-3 0  9998
2 04638  99.9994  10.0658 0023646 340.6530  19.3767 14.65911020521903
